[{"OBJECT_NAME":"STARLINK-34501","OBJECT_ID":"2025-129T","EPOCH":"2026-03-09T10:03:51.335424","MEAN_MOTION":14.98326747,"ECCENTRICITY":0.00033195,"INCLINATION":70.0006,"RA_OF_ASC_NODE":75.2658,"ARG_OF_PERICENTER":271.178,"MEAN_ANOMALY":88.8999,"EPHEMERIS_TYPE":0,"CLASSIFICATION_TYPE":"U","NORAD_CAT_ID":64429,"ELEMENT_SET_NO":999,"REV_AT_EPOCH":4124,"BSTAR":-9.400282e-6,"MEAN_MOTION_DOT":-2.05e-6,"MEAN_MOTION_DDOT":0},{"OBJECT_NAME":"FENGYUN 1C DEB","OBJECT_ID":"1999-025CAL","EPOCH":"2026-03-09T07:00:43.678944","MEAN_MOTION":15.11095595,"ECCENTRICITY":0.01530884,"INCLINATION":98.0969,"RA_OF_ASC_NODE":245.5084,"ARG_OF_PERICENTER":64.0772,"MEAN_ANOMALY":297.6143,"EPHEMERIS_TYPE":0,"CLASSIFICATION_TYPE":"U","NORAD_CAT_ID":31630,"ELEMENT_SET_NO":999,"REV_AT_EPOCH":99895,"BSTAR":0.00096285175,"MEAN_MOTION_DOT":0.00021366,"MEAN_MOTION_DDOT":0}]
